[
    {
        "Altitude(m)": 604969.0891676493,
        "Argument of Periapsis(deg)": 0.0,
        "Eccentricity": 0.0,
        "Inclination(deg)": 60.0,
        "Latitude(deg)": -0.09268684398859593,
        "Longitude(deg)": -20.02247222546243,
        "Mean Anomaly(deg)": 0.0,
        "RAAN(deg)": 80.0,
        "Satellite Name": "Test1 352",
        "Satellite Number": 352,
        "Semi-Major Axis(m)": 6980739.136638005,
        "Time(s)": 0
    },
    {
        "Altitude(m)": 604900.0284843895,
        "Argument of Periapsis(deg)": 0.00010418945913296404,
        "Eccentricity": 0.0,
        "Inclination(deg)": 60.0,
        "Latitude(deg)": 0.4477395483856431,
        "Longitude(deg)": -19.75435018634428,
        "Mean Anomaly(deg)": 0.6201061454618275,
        "RAAN(deg)": 79.99957995086025,
        "Satellite Name": "Test1 352",
        "Satellite Number": 352,
        "Semi-Major Axis(m)": 6980739.136638005,
        "Time(s)": 10
    }
]